NORAD_CAT_ID,OBJECT_NAME,OBJECT_TYPE,EPOCH,MEAN_MOTION,ECCENTRICITY,INCLINATION,RA_OF_ASC_NODE,ARG_OF_PERICENTER,MEAN_ANOMALY,BSTAR,MEAN_MOTION_DOT,MEAN_MOTION_DDOT,TLE_LINE0,TLE_LINE1,TLE_LINE2,SEMIMAJOR_AXIS,PERIOD,APOGEE,PERIGEE,DECAYED
49423.0,STARLINK-3149,PAYLOAD,2022-10-16 11:10:59,15.0880418,0.0001691,53.2187,36.7129,48.9978,311.116,-0.00014153,-2.538e-05,0.0,0 STARLINK-3149,1 49423U 21104R   22289.46596132 -.00002538  00000-0 -14153-3 0  9996,2 49423  53.2187  36.7129 0001691  48.9978 311.1160 15.08804180 52476,6917.99,95.44,541.025,538.685,0.0
49423.0,STARLINK-3149,PAYLOAD,2022-10-16 12:46:22,15.08805508,0.0001685,53.2186,36.4152,39.3622,320.7492,-0.00012228,-2.232e-05,0.0,0 STARLINK-3149,1 49423U 21104R   22289.53220100 -.00002232  00000-0 -12228-3 0  9995,2 49423  53.2186  36.4152 0001685  39.3622 320.7492 15.08805508 51402,6917.986,95.44,541.016,538.685,0.0
49423.0,STARLINK-3149,PAYLOAD,2022-10-16 17:32:30,15.08818609,0.0001479,53.2181,35.5219,51.3487,308.7638,-2.255800000000001e-05,-6.47e-06,0.0,0 STARLINK-3149,1 49423U 21104R   22289.73091288 -.00000647  00000-0 -22558-4 0  9996,2 49423  53.2181  35.5219 0001479  51.3487 308.7638 15.08818609 52512,6917.946,95.439,540.8340000000002,538.788,0.0
49423.0,STARLINK-3149,PAYLOAD,2022-10-16 23:54:02,15.08828924,0.0001903,53.218,34.336,38.5938,321.519,7.2022e-05,8.58e-06,0.0,0 STARLINK-3149,1 49423U 21104R   22289.99586656  .00000858  00000-0  72022-4 0  9995,2 49423  53.2180  34.3360 0001903  38.5938 321.5190 15.08828924 52556,6917.9140000000025,95.438,541.096,538.4630000000002,0.0
49423.0,STARLINK-3149,PAYLOAD,2022-10-17 12:37:07,15.08841002,0.0001949,53.2189,31.9561,39.6113,320.5022,0.00016851,2.395e-05,0.0,0 STARLINK-3149,1 49423U 21104R   22290.52577864  .00002395  00000-0  16851-3 0  9992,2 49423  53.2189  31.9561 0001949  39.6113 320.5022 15.08841002 52632,6917.877,95.437,541.091,538.394,0.0
49423.0,STARLINK-3149,PAYLOAD,2022-10-17 15:47:54,15.08835074,0.0002109,53.219,31.3627,36.9455,323.1682,0.00012393,1.684e-05,0.0,0 STARLINK-3149,1 49423U 21104R   22290.65826476  .00001684  00000-0  12393-3 0  9999,2 49423  53.2190  31.3627 0002109  36.9455 323.1682 15.08835074 52654,6917.895,95.438,541.219,538.3009999999998,0.0
49423.0,STARLINK-3149,PAYLOAD,2022-10-18 10:52:32,15.08826264,0.000207,53.219,27.7932,40.0213,320.0931,0.00025041,3.698e-05,0.0,0 STARLINK-3149,1 49423U 21104R   22291.45315143  .00003698  00000-0  25041-3 0  9993,2 49423  53.2190  27.7932 0002070  40.0213 320.0931 15.08826264 52774,6917.922,95.438,541.219,538.355,0.0
49423.0,STARLINK-3149,PAYLOAD,2022-10-18 15:38:42,15.08816363,0.0002128,53.2189,26.9029,36.5083,323.6054,0.00025779,3.814e-05,0.0,0 STARLINK-3149,1 49423U 21104R   22291.65187952  .00003814  00000-0  25779-3 0  9998,2 49423  53.2189  26.9029 0002128  36.5083 323.6054 15.08816363 52807,6917.953,95.439,541.29,538.345,0.0
49423.0,STARLINK-3149,PAYLOAD,2022-10-18 23:35:37,15.08838,0.0002289,53.2193,25.4155,36.3617,323.753,5.6063e-05,6.04e-06,0.0,0 STARLINK-3149,1 49423U 21104R   22291.98307344  .00000604  00000-0  56063-4 0  9998,2 49423  53.2193  25.4155 0002289  36.3617 323.7530 15.08838000 52852,6917.887,95.438,541.335,538.168,0.0
49423.0,STARLINK-3149,PAYLOAD,2022-10-19 12:18:42,15.08840277,0.0002035,53.2184,23.0356,33.9592,326.153,-5.4463e-05,-1.155e-05,0.0,0 STARLINK-3149,1 49423U 21104R   22292.51299361 -.00001155  00000-0 -54463-4 0  9993,2 49423  53.2184  23.0356 0002035  33.9592 326.1530 15.08840277 51858,6917.88,95.438,541.1519999999998,538.337,0.0
49423.0,STARLINK-3149,PAYLOAD,2022-10-20 12:09:29,15.08840295,0.0002129,53.2181,18.5751,34.9334,325.1798,1.5484e-05,-4.2e-07,0.0,0 STARLINK-3149,1 49423U 21104R   22293.50658842 -.00000042  00000-0  15484-4 0  9999,2 49423  53.2181  18.5751 0002129  34.9334 325.1798 15.08840295 53084,6917.879,95.438,541.217,538.2719999999998,0.0
49423.0,STARLINK-3149,PAYLOAD,2022-10-20 23:17:10,15.08846361,0.0002106999999999,53.218,16.4935,35.8019,324.3114,8.2587e-05,1.027e-05,0.0,0 STARLINK-3149,1 49423U 21104R   22293.97026132  .00001027  00000-0  82587-4 0  9992,2 49423  53.2180  16.4935 0002107  35.8019 324.3114 15.08846361 53151,6917.861,95.437,541.184,538.268,0.0
49423.0,STARLINK-3149,PAYLOAD,2022-10-21 10:24:55,15.08741579,0.0001414,53.2188,14.4128,42.3904,317.7197,0.0013017999999999,0.00020435,0.0,0 STARLINK-3149,1 49423U 21104R   22294.43397664  .00020435  00000-0  13018-2 0  9990,2 49423  53.2188  14.4128 0001414  42.3904 317.7197 15.08741579 53227,6918.181,95.444,541.024,539.068,0.0
49423.0,STARLINK-3149,PAYLOAD,2022-10-21 12:00:15,15.08853025,0.0002203,53.219,14.1146,43.197,316.9195,-0.00017332,-3.047e-05,0.0,0 STARLINK-3149,1 49423U 21104R   22294.50018355 -.00003047  00000-0 -17332-3 0  9991,2 49423  53.2190  14.1146 0002203  43.1970 316.9195 15.08853025 52156,6917.840999999999,95.437,541.23,538.182,0.0
49423.0,STARLINK-3149,PAYLOAD,2022-10-22 11:51:02,15.08842327,0.0002141,53.2188,9.6548,41.8032,318.3123,6.6629e-05,7.72e-06,0.0,0 STARLINK-3149,1 49423U 21104R   22295.49378117  .00000772  00000-0  66629-4 0  9999,2 49423  53.2188   9.6548 0002141  41.8032 318.3123 15.08842327 52300,6917.873000000001,95.437,541.219,538.257,0.0
49423.0,STARLINK-3149,PAYLOAD,2022-10-23 05:20:16,15.0884297,0.0002058,53.2188,6.3841,41.3682,318.7466,0.00012111,1.64e-05,0.0,0 STARLINK-3149,1 49423U 21104R   22296.22241629  .00001640  00000-0  12111-3 0  9999,2 49423  53.2188   6.3841 0002058  41.3682 318.7466 15.08842970 53492,6917.871,95.437,541.16,538.313,0.0
49423.0,STARLINK-3149,PAYLOAD,2022-10-23 11:41:48,15.08855402,0.0002207,53.2184,5.1954,37.847,322.2677,0.00017721,2.534e-05,0.0,0 STARLINK-3149,1 49423U 21104R   22296.48736608  .00002534  00000-0  17721-3 0  9998,2 49423  53.2184   5.1954 0002207  37.8470 322.2677 15.08855402 52454,6917.833000000001,95.437,541.225,538.172,0.0
49423.0,STARLINK-3149,PAYLOAD,2022-10-23 13:17:11,15.08855333,0.0002185,53.2181,4.8976,34.455,325.6583,0.00015711,2.214e-05,0.0,0 STARLINK-3149,1 49423U 21104R   22296.55360658  .00002214  00000-0  15711-3 0  9996,2 49423  53.2181   4.8976 0002185  34.4550 325.6583 15.08855333 52465,6917.834,95.437,541.21,538.187,0.0
49423.0,STARLINK-3149,PAYLOAD,2022-10-24 05:11:03,15.08845939,0.0002233,53.2177,1.9231,29.3345,330.7772,6.8444e-05,8.01e-06,0.0,0 STARLINK-3149,1 49423U 21104R   22297.21600987  .00000801  00000-0  68444-4 0  9994,2 49423  53.2177   1.9231 0002233  29.3345 330.7772 15.08845939 53640,6917.861999999999,95.437,541.2719999999998,538.182,0.0
49423.0,STARLINK-3149,PAYLOAD,2022-10-24 09:57:13,15.08833641,0.0001956999999999,53.2188,1.0323,39.6945,320.4190000000001,-5.1885e-05,-1.114e-05,0.0,0 STARLINK-3149,1 49423U 21104R   22297.41474020 -.00001114  00000-0 -51885-4 0  9994,2 49423  53.2188   1.0323 0001957  39.6945 320.4190 15.08833641 52597,6917.9,95.438,541.119,538.411,0.0
49423.0,STARLINK-3149,PAYLOAD,2022-10-24 11:32:36,15.08830584,0.0002215,53.2187,0.7359,30.0347,330.0772,-6.3672e-05,-1.301e-05,0.0,0 STARLINK-3149,1 49423U 21104R   22297.48098330 -.00001301  00000-0 -63672-4 0  9992,2 49423  53.2187   0.7359 0002215  30.0347 330.0772 15.08830584 52608,6917.909000000002,95.438,541.306,538.242,0.0
49423.0,STARLINK-3149,PAYLOAD,2022-10-24 21:04:57,15.08810498,0.0002142,53.2188,358.9499,39.2286,320.8861,-0.00025286,-4.307e-05,0.0,0 STARLINK-3149,1 49423U 21104R   22297.87844648 -.00004307  00000-0 -25286-3 0  9993,2 49423  53.2188 358.9499 0002142  39.2286 320.8861 15.08810498 53748,6917.971,95.439,541.317,538.354,0.0
49423.0,STARLINK-3149,PAYLOAD,2022-10-25 08:12:38,15.088313500000002,0.0002309,53.2187,356.8695,40.0775,320.0387,-0.0001612,-2.852e-05,0.0,0 STARLINK-3149,1 49423U 21104R   22298.34211739 -.00002852  00000-0 -16120-3 0  9995,2 49423  53.2187 356.8695 0002309  40.0775 320.0387 15.08831350 52733,6917.906999999997,95.438,541.369,538.174,0.0
49423.0,STARLINK-3149,PAYLOAD,2022-10-26 03:17:15,15.08836313,0.0002085,53.2183,353.2992,31.1583,328.9533,4.2712e-05,3.92e-06,0.0,0 STARLINK-3149,1 49423U 21104R   22299.13698862  .00000392  00000-0  42712-4 0  9991,2 49423  53.2183 353.2992 0002085  31.1583 328.9533 15.08836313 53936,6917.892,95.438,541.1990000000002,538.314,0.0
49423.0,STARLINK-3149,PAYLOAD,2022-10-26 11:14:11,15.08838854,0.0002061999999999,53.2184,351.8136,37.0884,323.0251,0.00016901,2.403e-05,0.0,0 STARLINK-3149,1 49423U 21104R   22299.46818429  .00002403  00000-0  16901-3 0  9995,2 49423  53.2184 351.8136 0002062  37.0884 323.0251 15.08838854 53985,6917.884,95.438,541.175,538.322,0.0
49423.0,STARLINK-3149,PAYLOAD,2022-10-27 11:04:58,15.08844526,0.0002209,53.2181,347.352,38.1743,321.9406,0.00015462,2.174e-05,0.0,0 STARLINK-3149,1 49423U 21104R   22300.46178794  .00002174  00000-0  15462-3 0  9998,2 49423  53.2181 347.3520 0002209  38.1743 321.9406 15.08844526 53058,6917.8669999999975,95.437,541.26,538.203,0.0
49423.0,STARLINK-3149,PAYLOAD,2022-10-27 20:37:17,15.08848289,0.0002213,53.2182,345.5675,38.0889,322.026,-2.1771e-06,-3.23e-06,0.0,0 STARLINK-3149,1 49423U 21104R   22300.85923026 -.00000323  00000-0 -21771-5 0  9995,2 49423  53.2182 345.5675 0002213  38.0889 322.0260 15.08848289 54191,6917.855,95.437,541.251,538.189,0.0
49423.0,STARLINK-3149,PAYLOAD,2022-10-28 09:20:21,15.08855596,0.0002666,53.219,343.1909,35.8568,324.2603,7.6686e-05,9.33e-06,0.0,0 STARLINK-3149,1 49423U 21104R   22301.38913972  .00000933  00000-0  76686-4 0  9992,2 49423  53.2190 343.1909 0002666  35.8568 324.2603 15.08855596 54278,6917.833000000001,95.437,541.5419999999998,537.8530000000002,0.0
49423.0,STARLINK-3149,PAYLOAD,2022-10-29 07:35:45,15.08853477,0.0002399999999999,53.2189,339.0275,33.3185,326.7957,1.3615e-05,-7.2e-07,0.0,0 STARLINK-3149,1 49423U 21104R   22302.31649559 -.00000072  00000-0  13615-4 0  9991,2 49423  53.2189 339.0275 0002400  33.3185 326.7957 15.08853477 54411,6917.839,95.437,541.364,538.044,0.0
